ONEWEB-0461             
1 51649U 22012AD  25245.88663280  .00000081  00000+0  17634-3 0  9993
2 51649  87.9036  62.9979 0001741  95.4219 264.7111 13.17650829176058
ONEWEB-0463             
1 51650U 22012AE  25245.94399291  .00000088  00000+0  19218-3 0  9997
2 51650  87.9022  63.0477 0001764  89.5379 270.5955 13.17650190175844
ONEWEB-0464             
1 51651U 22012AF  25245.85235444 -.00000232  00000+0 -70152-3 0  9994
2 51651  87.8753  93.5949 0001457  74.1103 286.0185 13.10374314171691
ONEWEB-0468             
1 51652U 22012AG  25245.93534995  .00000052  00000+0  11341-3 0  9990
2 51652  87.8754  93.5700 0001663  81.2930 278.8386 13.10376603171688
ONEWEB-0473             
1 51653U 22012AH  25245.84404030 -.00000542  00000+0 -15893-2 0  9998
2 51653  87.8754  93.5918 0001747  79.5107 280.6217 13.10373710171678
ONEWEB-0474             
1 51654U 22012AJ  25245.83574951 -.00000620  00000+0 -18134-2 0  9996
2 51654  87.8753  93.5537 0001671  75.1366 284.9946 13.10372147171668
ONEWEB-0475             
1 51655U 22012AK  25245.95581759  .00000100  00000+0  22452-3 0  9994
2 51655  87.9027  63.0277 0002032  67.3603 292.7743 13.17649426175868
ONEWEB-0490             
1 54113U 22138A   25245.78893374  .00000022  00000+0  22273-4 0  9990
2 54113  87.9281   2.0912 0001600  94.3442 265.7874 13.19726471138921
